STARS-AO                
1 43679U 18084J   26077.54713563  .00004778  00000+0  25301-3 0  9995
2 43679  98.0603 285.9459 0003352 107.5301 252.6297 15.15949039403735
AUTCUBE 2               
1 43681U 18084K   26077.49754101  .00004013  00000+0  25527-3 0  9997
2 43681  98.0789 278.8592 0008949 357.9069   2.2120 15.09404774403246
METOP-C                 
1 43689U 18087A   26077.47908095  .00000091  00000+0  61426-4 0  9990
2 43689  98.6746 138.7021 0002162  87.6924 272.4501 14.21499785381947
ES'HAIL 2               
1 43700U 18090A   26077.28182961  .00000145  00000+0  00000+0 0  9999
2 43700   0.0169 233.6819 0000983 112.0603 317.3560  1.00271172 26764
MOHAMMED VI-B           
1 43717U 18095A   26077.47033046  .00000285  00000+0  47610-4 0  9990
2 43717  97.9411 151.0764 0001316  95.8731 264.2629 14.77054631394794
HYSIS                   
1 43719U 18096A   26077.46557828  .00000675  00000+0  99092-4 0  9995
2 43719  97.9931 144.8907 0001819  91.1274 269.0146 14.78679490394010
COSMOS 2530 (RODNIK-S *)
1 43751U 18097A   26077.57545269  .00000115  00000+0  75955-3 0  9990
2 43751  82.5099 278.5342 0018913 232.4243 127.5119 12.42878916331032
COSMOS 2531 (RODNIK-S *)
1 43752U 18097B   26077.51951925  .00000168  00000+0  11444-2 0  9995
2 43752  82.5145 279.5972 0015948 252.2787 107.6553 12.42910354331048
COSMOS 2532 (RODNIK-S *)
1 43753U 18097C   26077.54755176  .00000120  00000+0  79312-3 0  9996
2 43753  82.5088 278.4065 0017305 254.4757 105.4412 12.42906678331017
MINXSS-2                
1 43758U 18099A   26077.41975494  .00024679  00000+0  60045-3 0  9994
2 43758  97.4616 151.4312 0008064 224.7413 135.3183 15.40916984400128
SIRION PATHFINDER-2     
1 43759U 18099B   26077.37809926  .00003658  00000+0  20701-3 0  9995
2 43759  97.4372 128.5997 0007384 249.7117 110.3322 15.13641390398887
AISTECHSAT 2            
1 43768U 18099L   26077.40245324  .00004733  00000+0  26096-3 0  9993
2 43768  97.4418 127.4341 0003287 242.5628 117.5270 15.14451539398533
FOX-1CLIFF (AO-95)      
1 43770U 18099N   26077.11023653  .00008994  00000+0  36693-3 0  9990
2 43770  97.4493 137.7862 0007699 313.7026  46.3573 15.24632757399333
2018-099Q               
1 43772U 18099Q   26077.43999172  .00076398  00000+0  96625-3 0  9999
2 43772  97.4282 153.2156 0002775 192.7185 167.4002 15.59266607400410
RANGE-A                 
1 43773U 18099R   26077.10787813  .00003597  00000+0  20983-3 0  9996
2 43773  97.4091 122.3515 0008948 307.8992  52.1429 15.12550156398725
SNUSAT-2                
1 43782U 18099AA  26077.42090270  .00006836  00000+0  31708-3 0  9991
2 43782  97.4179 132.2456 0009163 249.3482 110.6771 15.20336199399235
SNUGLITE                
1 43784U 18099AC  26077.40012473  .00008407  00000+0  33903-3 0  9995
2 43784  97.3990 132.6606 0001779 219.3060 140.8049 15.25065683399473
ITASAT                  
1 43786U 18099AE  26077.54307537  .00005663  00000+0  28286-3 0  9999
2 43786  97.4149 130.8918 0011457 313.2282  46.7995 15.17816219399151
EAGLET-I                
1 43790U 18099AJ  26077.09070831  .00003870  00000+0  22770-3 0  9998
2 43790  97.4351 129.1671 0009883 304.7206  55.3093 15.12189935398561
ESEO                    
1 43792U 18099AL  26077.10512282  .00001634  00000+0  12258-3 0  9999
2 43792  97.4102 118.3584 0010136 286.4809  73.5303 15.03951435398117
THEA                    
1 43796U 18099AQ  26077.43276037  .00012860  00000+0  42110-3 0  9997
2 43796  97.4534 146.4238 0006868 239.6304 120.4258 15.31781167398783
ASTROCAST 0.1           
1 43798U 18099AS  26077.48639561  .00024752  00000+0  55116-3 0  9992
2 43798  97.4449 153.5417 0006194 178.6192 181.5074 15.43593747400413
JY1SAT (JO-97)          
1 43803U 18099AX  26077.44742103  .00013027  00000+0  44217-3 0  9995
2 43803  97.4239 140.1249 0005288 219.4896 140.5960 15.30624013399738
SUOMI-100               
1 43804U 18099AY  26077.40317732  .00008832  00000+0  34339-3 0  9990
2 43804  97.4302 138.2314 0009297 234.4902 125.5470 15.26236830399561
AL-FARABI 2             
1 43805U 18099AZ  26077.47713170  .00139585  00000+0  10978-2 0  9996
2 43805  97.4078 153.8282 0004547 199.9039 160.2047 15.71051569400730
CENTAURI-1              
1 43809U 18099BD  26077.37596155  .00004472  00000+0  24013-3 0  9993
2 43809  97.4338 131.0582 0012811 284.4275  75.5535 15.15359095398749
GLOBAL-2                
1 43812U 18099BG  26077.05985493  .00003197  00000+0  21097-3 0  9991
2 43812  97.3674 117.3459 0007458 105.3583 254.8470 15.08105324398172
SEAHAWK-1               
1 43820U 18099BQ  26077.40997700  .00006855  00000+0  31020-3 0  9994
2 43820  97.4079 131.3319 0006910 264.9727  95.0720 15.21199525398721
SAUDISAT 5A             
1 43831U 18102A   26077.50502565  .00005049  00000+0  19262-3 0  9991
2 43831  97.3172 140.8520 0011546  95.9178 264.3378 15.27052529401833
SAUDISAT 5B             
1 43833U 18102C   26077.54055847  .00004855  00000+0  18360-3 0  9995
2 43833  97.3271 143.7941 0012273  97.7186 262.5447 15.27357417401955
2018-102D               
1 43834U 18102D   26077.49166316  .00033106  00000+0  45975-3 0  9997
2 43834  97.3477 163.2703 0004589  50.0026 310.1631 15.56946437403093
ISAT                    
1 43879U 18111D   26077.36514154  .00046223  00000+0  76116-3 0  9994
2 43879  97.5914   6.5941 0002033 258.7896 101.3127 15.52200803397028
UWE-4                   
1 43880U 18111E   26077.51021295  .00025494  00000+0  62754-3 0  9992
2 43880  97.5862   2.1221 0006135 300.6624  59.4016 15.40573327396792
D-STAR ONE (SPARROW)    
1 43881U 18111F   26077.36045179  .00059689  00000+0  84929-3 0  9994
2 43881  97.6117  11.0518 0002157  29.1582 330.9792 15.56171643397174
JILIN-1 09              
1 43943U 19005B   26077.53561324  .00004736  00000+0  22553-3 0  9998
2 43943  97.4707 173.3549 0003433  69.3266 290.8336 15.19618583395371
JILIN-1 10              
1 43946U 19005E   26077.52270756  .00005444  00000+0  22368-3 0  9997
2 43946  97.4738 176.4339 0007326 229.7176 130.3421 15.24588661395491
EGYPTSAT-A (MISRSAT-A)  
1 44047U 19008A   26077.48275457  .00000805  00000+0  13520-3 0  9997
2 44047  98.0137 143.5767 0001117  91.8977 268.2359 14.72307256379891
EMISAT                  
1 44078U 19018A   26077.48886442  .00000319  00000+0  10684-3 0  9992
2 44078  98.4761 136.7464 0019607 128.8161 231.4784 14.43630529366978
JILIN-1 GAOFEN 3A       
1 44312U 19032C   26077.55733473  .00009218  00000+0  31634-3 0  9997
2 44312  44.9749 134.9555 0003434 174.6098 185.4823 15.30502908373944
WT 1A                   
1 44315U 19032F   26077.55168354  .00189844  00000+0  10087-2 0  9992
2 44315  44.9738  25.9736 0009582 160.9436 199.1826 15.79156741375253
WT 1B                   
1 44316U 19032G   26077.48473889  .00007514  00000+0  30429-3 0  9993
2 44316  44.9730 195.3338 0007885 103.1219 257.0543 15.25246038373223
PROX-1                  
1 44339U 19036A   26077.48417031  .00011283  00000+0  11612-2 0  9999
2 44339  23.9963 359.0918 0006359  63.7405 296.3747 14.88295063359933
NPSAT1                  
1 44340U 19036B   26077.27451223  .00004960  00000+0  70762-3 0  9995
2 44340  23.9982  89.4519 0007286 262.8759  97.0909 14.73625957359064
FORMOSAT 7-3            
1 44343U 19036E   26077.22411879  .00004547  00000+0  25889-3 0  9997
2 44343  23.9986  84.2542 0000452 267.2695  92.7757 15.09024400369482
FORMOSAT 7-1            
1 44349U 19036L   26076.95312152  .00002458  00000+0  18735-3 0  9997
2 44349  23.9976 287.2782 0000770 162.0373 198.0155 14.96073831370971
FORMOSAT 7-4            
1 44350U 19036M   26076.90860191  .00002698  00000+0  20821-3 0  9990
2 44350  23.9996 349.6768 0000989 184.4646 175.5846 14.96065946370385
FORMOSAT 7-2            
1 44351U 19036N   26077.26449781  .00002727  00000+0  21075-3 0  9994
2 44351  23.9992  41.5913 0000570 173.1862 186.8646 14.96070890369951
FORMOSAT 7-6            
1 44353U 19036Q   26077.53149725  .00002681  00000+0  20660-3 0  9999
2 44353  23.9968 220.6183 0001501 109.6890 250.3773 14.96081215368225
FORMOSAT 7-5            
1 44358U 19036V   26077.50885537  .00002739  00000+0  21172-3 0  9992
2 44358  23.9980 159.5172 0000515 138.8913 221.1626 14.96080692368755
METEOR-M2 2             
1 44387U 19038A   26077.48577235  .00000156  00000+0  87390-4 0  9992
2 44387  98.9092  63.4587 0000433 337.5340  22.5819 14.24338167348385
COSMOS 2535             
1 44421U 19039A   26077.52746024  .00001308  00000+0  13516-3 0  9999
2 44421  97.5880 109.1256 0009266 146.3611 213.8198 14.91748347363128
GLOBAL-4                
1 44499U 19054E   26077.35673982  .00035014  00000+0  49030-3 0  9995
2 44499  45.0081  37.2680 0004291  79.0054 281.1322 15.56227143366175
ZY-1 02D                
1 44528U 19059A   26077.52327705  .00000202  00000+0  84809-4 0  9996
2 44528  98.3294 142.1809 0002363  60.9501 299.1922 14.35453796341335
TAURUS-1 (JINNIUZUO 1)  
1 44530U 19059C   26077.46957868  .00005834  00000+0  95998-3 0  9997
2 44530  98.6310 236.7845 0008697 229.1450 130.9002 14.70951997345305
ZHUHAI-1 03B            
1 44536U 19060C   26077.50117142  .00025884  00000+0  48477-3 0  9990
2 44536  97.5407 230.7994 0008391 286.9639  73.0691 15.48633923362263
ZHUHAI-1 03C            
1 44537U 19060D   26077.49811779  .00080288  00000+0  58870-3 0  9993
2 44537  97.5513 240.5172 0011187 238.0962 121.9213 15.72831651362867
ZHUHAI-1 03D            
1 44538U 19060E   26077.47981360  .00023187  00000+0  50376-3 0  9994
2 44538  97.5261 223.7002 0008041 271.2824  88.7502 15.44325802362051
ZHUHAI-1 03E            
1 44539U 19060F   26077.50707906  .00015520  00000+0  41987-3 0  9991
2 44539  97.5472 224.5955 0005480 355.0072   5.1117 15.37782393361814
ATLAS 5 CENTAUR DEB     
1 44694U 18079BG  26076.40939882 -.00000116  00000+0  00000+0 0  9993
2 44694  13.5261  46.8019 4745006 284.4301  29.0063  1.77433557 44935
